STARLINK-6271           
1 56397U 23061Z   23338.39985601  .00017522  00000+0  13090-2 0  9993
2 56397  43.0046 354.7769 0001142 290.0200  70.0519 15.02533245 32895
STARLINK-6288           
1 56398U 23061AA  23338.11951106  .00053147  00000+0  39165-2 0  9991
2 56398  43.0047 356.1126 0000452 309.9813  50.0990 15.02566567 32853
STARLINK-6277           
1 56399U 23061AB  23338.12506954  .00005440  00000+0  41771-3 0  9990
2 56399  43.0048 356.1555 0001249 246.9335 113.1376 15.02511992 32856
STARLINK-6267           
1 56400U 23061AC  23338.11394326  .00009638  00000+0  72756-3 0  9990
2 56400  43.0046 356.0710 0001061 211.6864 148.3915 15.02534922 32854
STARLINK-6256           
1 56401U 23061AD  23338.05551869  .00016787  00000+0  12553-2 0  9992
2 56401  43.0046 343.4860 0001014 295.9190  64.1548 15.02519615 32990
STARLINK-6284           
1 56403U 23061AF  23338.11618971  .00033619  00000+0  24918-2 0  9990
2 56403  43.0047 356.0893 0001168 298.6962  61.3763 15.02536650 32857
STARLINK-6287           
1 56404U 23061AG  23338.10509069  .00023228  00000+0  17293-2 0  9990
2 56404  43.0048 356.0027 0001244 240.0578 120.0141 15.02527474 32854
STARLINK-6285           
1 56405U 23061AH  23338.44302832  .00027361  00000+0  20319-2 0  9992
2 56405  43.0047 354.2418 0000969 295.1058  64.9684 15.02550128 32901
STARLINK-6283           
1 56406U 23061AJ  23338.42859983  .00034778  00000+0  25767-2 0  9997
2 56406  43.0042 354.1309 0000712 272.9649  87.1112 15.02537970 32903
STARLINK-6282           
1 56407U 23061AK  23338.10730955  .00023420  00000+0  17431-2 0  9991
2 56407  43.0045 356.0232 0001216 248.2597 111.8116 15.02533357 32859
STARLINK-6289           
1 56408U 23061AL  23338.42638030  .00024989  00000+0  18580-2 0  9995
2 56408  43.0021 354.1131 0001091 237.9516 122.1221 15.02542662 32905
STARLINK-6241           
1 56409U 23061AM  23338.43414503  .00031081  00000+0  23041-2 0  9993
2 56409  43.0042 354.1740 0000632 325.1076  34.9725 15.02563059 32908
STARLINK-6281           
1 56410U 23061AN  23338.41972098  .00025886  00000+0  19238-2 0  9990
2 56410  43.0046 354.0640 0001093 246.0077 114.0651 15.02545750 32902
STARLINK-6279           
1 56411U 23061AP  23338.09954100  .00015145  00000+0  11343-2 0  9995
2 56411  43.0044 355.9620 0001219 242.2502 117.8216 15.02519953 32858
STARLINK-6278           
1 56412U 23061AQ  23338.08177633 -.00002410  00000+0 -16349-3 0  9998
2 56412  43.0048 355.8276 0001171 250.4584 109.6132 15.02518060 32851
STARLINK-6258           
1 56413U 23061AR  23338.09066302  .00017969  00000+0  13426-2 0  9995
2 56413  43.0043 355.8954 0001284 248.9206 111.1499 15.02515921 32855
STARLINK-5136           
1 56414U 23061AS  23338.14271220  .00017800  00000+0  13300-2 0  9994
2 56414  43.0051 355.4213 0001269 241.1340 118.9375 15.02518458 32863
STARLINK-6268           
1 56415U 23061AT  23338.41750411  .00016598  00000+0  12410-2 0  9993
2 56415  43.0047 354.0470 0001080 244.1841 115.8890 15.02530846 32907
STARLINK-6260           
1 56416U 23061AU  23338.45325773 -.00001354  00000+0 -85139-4 0  9993
2 56416  43.0058 341.3105 0001187 254.9441 105.1271 15.02547698 33052
STARLINK-6261           
1 56417U 23061AV  23338.07956350  .00017960  00000+0  13420-2 0  9993
2 56417  43.0049 355.8087 0001244 243.3440 116.7275 15.02513519 32851
STARLINK-5356           
1 56418U 23061AW  23338.11422626  .00030090  00000+0  22326-2 0  9997
2 56418  43.0043 343.0637 0000851 309.9074  50.1693 15.02542875 33001
STARLINK-5350           
1 56419U 23061AX  23338.14160219  .00015434  00000+0  11558-2 0  9998
2 56419  43.0052 355.4143 0001256 244.8520 115.2192 15.02512944 32868
STARLINK-6272           
1 56420U 23061AY  23338.37681240  .00018096  00000+0  13515-2 0  9999
2 56420  43.0043 341.5947 0001184 232.1993 127.8743 15.02528095 33048
STARLINK-6270           
1 56421U 23061AZ  23338.11755899  .00010819  00000+0  81518-3 0  9998
2 56421  43.0047 343.0914 0001231 240.3067 119.7652 15.02513849 33006
STARLINK-6236           
1 56422U 23061BA  23338.37126271  .00017889  00000+0  13363-2 0  9999
2 56422  43.0041 341.5485 0001304 235.7349 124.3370 15.02526769 33047
STARLINK-6239           
1 56423U 23061BB  23338.10756714  .00013082  00000+0  98191-3 0  9996
2 56423  43.0047 343.0126 0000733 285.4530  74.6232 15.02526238 33003
STARLINK-6242           
1 56424U 23061BC  23338.43107536  .00012440  00000+0  93449-3 0  9993
2 56424  43.0043 341.1370 0001240 236.7084 123.3640 15.02529516 33059
STARLINK-6224           
1 56425U 23061BD  23338.43440608  .00023718  00000+0  17642-2 0  9994
2 56425  43.0043 341.1626 0000643 293.0037  67.0737 15.02551131 33053
STARLINK-5352           
1 56426U 23061BE  23338.36013868 -.00000913  00000+0 -52515-4 0  9995
2 56426  43.0053 341.4651 0000581 273.0106  87.0670 15.02549162 33040
STARLINK-5724           
1 56427U 23061BF  23338.42996891  .00042888  00000+0  31671-2 0  9992
2 56427  43.0043 341.1313 0001026 299.0491  61.0249 15.02577016 33056
STARLINK-6238           
1 56428U 23061BG  23338.09092075  .00014440  00000+0  10824-2 0  9997
2 56428  43.0048 342.8845 0001163 234.1285 125.9449 15.02515708 33000
STARLINK-6264           
1 56429U 23061BH  23338.42107958 -.00001895  00000+0 -12526-3 0  9996
2 56429  43.0053 341.0611 0001089 240.6927 119.3806 15.02539140 33056
STARLINK-5990           
1 56448U 23064A   23338.46387224 -.00001375  00000+0 -10742-3 0  9991
2 56448  70.0009  67.7444 0003095 251.9586 108.1236 14.98337926 31849
STARLINK-5993           
1 56449U 23064B   23338.48459066  .00003716  00000+0  31906-3 0  9992
2 56449  70.0009  67.8152 0003073 268.2347  91.8460 14.98331922 31846
STARLINK-5970           
1 56450U 23064C   23338.45971379 -.00002058  00000+0 -16475-3 0  9991
2 56450  70.0015  67.7285 0002810 262.1061  97.9780 14.98332138 31847
STARLINK-5985           
1 56451U 23064D   23338.48041431 -.00001157  00000+0 -89185-4 0  9990
2 56451  70.0042  67.8072 0002977 218.4645 141.6302 14.98335553 31840
STARLINK-5986           
1 56452U 23064E   23338.47623175 -.00002459  00000+0 -19842-3 0  9999
2 56452  70.0015  67.7893 0002920 259.5986 100.4844 14.98324535 31845
STARLINK-5935           
1 56453U 23064F   23338.47207726 -.00002298  00000+0 -18486-3 0  9994
2 56453  70.0018  67.7707 0002876 267.9182  92.1648 14.98325155 31842
STARLINK-5959           
1 56454U 23064G   23338.45120524 -.00001938  00000+0 -15474-3 0  9997
2 56454  70.0019  67.6999 0002507 250.1600 109.9289 14.98325468 31841
STARLINK-5987           
1 56455U 23064H   23338.44703146 -.00002229  00000+0 -17909-3 0  9993
2 56455  70.0025  67.6849 0002293 243.8923 116.2000 14.98325227 31847
STARLINK-5995           
1 56456U 23064J   23338.45954598 -.00000808  00000+0 -59907-4 0  9990
2 56456  70.0025  67.7296 0002937 237.3038 122.7838 14.98334678 31846
STARLINK-5994           
1 56457U 23064K   23338.45538078 -.00001611  00000+0 -12728-3 0  9994
2 56457  70.0020  67.7120 0002505 265.0074  95.0799 14.98322079 31847
STARLINK-6050           
1 56458U 23064L   23338.46373182 -.00002789  00000+0 -22608-3 0  9994
2 56458  70.0014  67.7402 0002822 270.5769  89.5067 14.98323526 31842
STARLINK-6048           
1 56459U 23064M   23338.50126848 -.00001940  00000+0 -15485-3 0  9998
2 56459  70.0020  67.4718 0002564 241.3452 118.7449 14.98322420 31857
STARLINK-6047           
1 56460U 23064N   23338.44285724 -.00001831  00000+0 -14566-3 0  9990
2 56460  69.9993  67.6667 0003001 264.4323  95.6494 14.98329640 31843
STARLINK-6037           
1 56461U 23064P   23338.49292052 -.00004072  00000+0 -33359-3 0  9999
2 56461  70.0017  67.4409 0002619 252.3105 107.7768 14.98338865 31853
STARLINK-6045           
1 56462U 23064Q   23337.91667824  .00031364  00000+0  25602-2 0  9992
2 56462  70.0007  28.9005 0002857 274.7883  50.5851 14.99289551 32758
STARLINK-6051           
1 56463U 23064R   23338.40114025 -.00001810  00000+0 -14398-3 0  9994
2 56463  70.0031  67.9188 0002284 255.4150 104.6756 14.98326906 31836
STARLINK-6043           
1 56464U 23064S   23338.50543112  .00001475  00000+0  13143-3 0  9991
2 56464  70.0000  67.4850 0002730 270.0434  90.0412 14.98327172 31853
STARLINK-6054           
1 56465U 23064T   23338.25001157 -.00023153  00000+0 -18896-2 0  9990
2 56465  70.0018  28.0802 0002897 274.8255  27.4088 14.99324307 32795
STARLINK-6053           
1 56466U 23064U   23338.49709368  .00000115  00000+0  17409-4 0  9998
2 56466  70.0017  67.4578 0002625 256.3682 103.7185 14.98316933 31857
STARLINK-6055           
1 56467U 23064V   23338.45098859 -.00003356  00000+0 -27367-3 0  9996
2 56467  70.0016  47.8229 0002537 258.9299 101.1574 14.98317168 32335
STARLINK-5998           
1 56468U 23064W   23338.48875066 -.00003661  00000+0 -29925-3 0  9994
2 56468  70.0013  67.4267 0002685 278.0030  82.0824 14.98328022 31855
STARLINK-5518           
1 56469U 23064X   23338.46346166  .00002674  00000+0  23161-3 0  9994
2 56469  70.0030  47.8711 0002882 230.3133 129.7773 14.98368587 32331
STARLINK-5523           
1 56470U 23064Y   23338.45515866 -.00002842  00000+0 -23055-3 0  9991
2 56470  70.0020  47.8400 0002492 266.1659  93.9215 14.98326237 32333
STARLINK-5521           
1 56471U 23064Z   23338.44681305 -.00003171  00000+0 -25816-3 0  9996
2 56471  70.0006  47.8049 0002933 283.1847  76.8985 14.98322546 32338
STARLINK-5038           
1 56472U 23064AA  23338.44697157 -.00001783  00000+0 -14168-3 0  9994
2 56472  70.0018  47.8097 0002742 250.6191 109.4672 14.98327347 32334
STARLINK-5486           
1 56473U 23064AB  23338.50104666 -.00002776  00000+0 -22499-3 0  9999
2 56473  70.0036  47.5987 0002022 253.7885 106.3051 14.98325533 32348
STARLINK-5524           
1 56474U 23064AC  23338.45933218 -.00002162  00000+0 -17354-3 0  9990
2 56474  70.0035  47.8564 0002148 241.9601 118.1341 14.98323234 32334
